NORAD_CAT_ID,OBJECT_NAME,OBJECT_TYPE,EPOCH,MEAN_MOTION,ECCENTRICITY,INCLINATION,RA_OF_ASC_NODE,ARG_OF_PERICENTER,MEAN_ANOMALY,BSTAR,MEAN_MOTION_DOT,MEAN_MOTION_DDOT,TLE_LINE0,TLE_LINE1,TLE_LINE2,SEMIMAJOR_AXIS,PERIOD,APOGEE,PERIGEE,DECAYED
55962.0,STARLINK-5906,PAYLOAD,2023-10-09 22:00:00,14.99265449,0.000301,69.9999,327.6884,267.4984,61.1399,0.0040724,0.00050047,0.0,0 STARLINK-5906,1 55962U 23037BA  23282.91667824  .00050047  00000-0  40724-2 0  9997,2 55962  69.9999 327.6884 0003010 267.4984  61.1399 14.99265449  5852,6947.302,96.047,571.258,567.075,0.0
55962.0,STARLINK-5906,PAYLOAD,2023-10-10 10:56:58,14.99309256,0.0002675,69.9984,326.3258,268.3698,91.7156,2.5763e-06,-6.2e-07,0.0,0 STARLINK-5906,1 55962U 23037BA  23283.45623709 -.00000062  00000-0  25763-5 0  9993,2 55962  69.9984 326.3258 0002675 268.3698  91.7156 14.99309256 32816,6947.166,96.044,570.89,567.173,0.0
55962.0,STARLINK-5906,PAYLOAD,2023-10-10 12:33:02,14.99310742,0.0002726,69.998,326.1569,267.3214,92.7633,4.5342e-05,4.61e-06,0.0,0 STARLINK-5906,1 55962U 23037BA  23283.52295132  .00000461  00000-0  45342-4 0  9992,2 55962  69.9980 326.1569 0002726 267.3214  92.7633 14.99310742 32481,6947.162,96.044,570.92,567.133,0.0
55962.0,STARLINK-5906,PAYLOAD,2023-10-11 02:57:42,14.99298455,0.0002543,69.9984,324.6402,293.7369,66.3523,3.6225e-05,3.49e-06,0.0,0 STARLINK-5906,1 55962U 23037BA  23284.12341114  .00000349  00000-0  36225-4 0  9996,2 55962  69.9984 324.6402 0002543 293.7369  66.3523 14.99298455 32914,6947.2,96.045,570.831,567.298,0.0
55962.0,STARLINK-5906,PAYLOAD,2023-10-11 12:34:08,14.99296964,0.0002775,69.9977,323.6298,269.4233,90.6609,-2.2856e-05,-3.73e-06,0.0,0 STARLINK-5906,1 55962U 23037BA  23284.52371384 -.00000373  00000-0 -22856-4 0  9996,2 55962  69.9977 323.6298 0002775 269.4233  90.6609 14.99296964 32632,6947.204,96.045,570.997,567.141,0.0
55962.0,STARLINK-5906,PAYLOAD,2023-10-12 04:34:52,14.9929979,0.0002866,69.9975,321.9451,270.4736,89.6095,-2.3105e-05,-3.77e-06,0.0,0 STARLINK-5906,1 55962U 23037BA  23285.19088035 -.00000377  00000-0 -23105-4 0  9990,2 55962  69.9975 321.9451 0002866 270.4736  89.6095 14.99299790 33079,6947.196,96.045,571.052,567.069,0.0
55962.0,STARLINK-5906,PAYLOAD,2023-10-12 12:35:13,14.99305275,0.0002851,69.9975,321.1025,271.6648,88.4185,3.3592e-05,3.17e-06,0.0,0 STARLINK-5906,1 55962U 23037BA  23285.52445926  .00000317  00000-0  33592-4 0  9996,2 55962  69.9975 321.1025 0002851 271.6648  88.4185 14.99305275 32787,6947.179,96.044,571.024,567.063,0.0
55962.0,STARLINK-5906,PAYLOAD,2023-10-13 04:35:56,14.99354977,0.0002604,69.9975,319.4175,282.725,77.3619,-0.00085557,-0.00010561,0.0,0 STARLINK-5906,1 55962U 23037BA  23286.19162580 -.00010561  00000-0 -85557-3 0  9993,2 55962  69.9975 319.4175 0002604 282.7250  77.3619 14.99354977 33223,6947.025,96.041,570.699,567.081,0.0
55962.0,STARLINK-5906,PAYLOAD,2023-10-13 12:36:18,14.99299805,0.0002357,69.998,318.5751,260.5364,99.5529,0.00013567,1.567e-05,0.0,0 STARLINK-5906,1 55962U 23037BA  23286.52521105  .00001567  00000-0  13567-3 0  9998,2 55962  69.9980 318.5751 0002357 260.5364  99.5529 14.99299805 33273,6947.195,96.045,570.698,567.423,0.0
55962.0,STARLINK-5906,PAYLOAD,2023-10-13 19:00:35,14.99308334,0.0002737,69.9987,317.9014,272.6038,87.4808,-4.9863e-05,-7.04e-06,0.0,0 STARLINK-5906,1 55962U 23037BA  23286.79207722 -.00000704  00000-0 -49863-4 0  9996,2 55962  69.9987 317.9014 0002737 272.6038  87.4808 14.99308334 32979,6947.169,96.044,570.936,567.133,0.0
55962.0,STARLINK-5906,PAYLOAD,2023-10-14 12:37:22,14.99306612,0.0002717,69.9986,316.048,274.7271,85.3578,6.4547e-05,6.96e-06,0.0,0 STARLINK-5906,1 55962U 23037BA  23287.52595868  .00000696  00000-0  64547-4 0  9993,2 55962  69.9986 316.0480 0002717 274.7271  85.3578 14.99306612 33086,6947.174,96.044,570.927,567.152,0.0
55962.0,STARLINK-5906,PAYLOAD,2023-10-15 04:38:07,14.99291342,0.0002801,69.9985,314.3635,266.2673,93.8166,-0.00014312,-1.844e-05,0.0,0 STARLINK-5906,1 55962U 23037BA  23288.19314286 -.00001844  00000-0 -14312-3 0  9992,2 55962  69.9985 314.3635 0002801 266.2673  93.8166 14.99291342 33523,6947.222,96.045,571.033,567.141,0.0
55962.0,STARLINK-5906,PAYLOAD,2023-10-15 11:02:25,14.99286314,0.000274,69.9986,313.6889,266.2242,93.8604,-0.00013133,-1.7e-05,0.0,0 STARLINK-5906,1 55962U 23037BA  23288.46001461 -.00001700  00000-0 -13133-3 0  9991,2 55962  69.9986 313.6889 0002740 266.2242  93.8604 14.99286314 33228,6947.237,96.046,571.006,567.199,0.0
55962.0,STARLINK-5906,PAYLOAD,2023-10-15 19:02:46,14.9929309,0.0002957,69.9984,312.847,270.2747,89.8074,-0.0001012,-1.332e-05,0.0,0 STARLINK-5906,1 55962U 23037BA  23288.79359515 -.00001332  00000-0 -10120-3 0  9997,2 55962  69.9984 312.8470 0002957 270.2747  89.8074 14.99293090 33278,6947.216,96.045,571.136,567.027,0.0
55962.0,STARLINK-5906,PAYLOAD,2023-10-16 07:51:20,14.99297441,0.0003055,69.998,311.4987,268.6147,91.4662,-2.6531e-05,-4.18e-06,0.0,0 STARLINK-5906,1 55962U 23037BA  23289.32732615 -.00000418  00000-0 -26531-4 0  9991,2 55962  69.9980 311.4987 0003055 268.6147  91.4662 14.99297441 33699,6947.203,96.045,571.19,566.945,0.0
55962.0,STARLINK-5906,PAYLOAD,2023-10-16 11:03:29,14.99299569,0.0002904,69.9982,311.1614,266.431,93.6517,-4.993e-06,-1.55e-06,0.0,0 STARLINK-5906,1 55962U 23037BA  23289.46075799 -.00000155  00000-0 -49930-5 0  9996,2 55962  69.9982 311.1614 0002904 266.4310  93.6517 14.99299569 33376,6947.196,96.045,571.079,567.044,0.0
55962.0,STARLINK-5906,PAYLOAD,2023-10-17 11:04:33,14.99300862,0.0002614,69.9988,308.633,257.497,102.5897,0.00025758,3.059e-05,0.0,0 STARLINK-5906,1 55962U 23037BA  23290.46150222  .00003059  00000-0  25758-3 0  9997,2 55962  69.9988 308.6330 0002614 257.4970 102.5897 14.99300862 33862,6947.192,96.045,570.873,567.241,0.0
55962.0,STARLINK-5906,PAYLOAD,2023-10-18 03:05:17,14.99301113,0.0003118,69.9999,306.9506,271.3122,88.768,4.0631e-05,4.03e-06,0.0,0 STARLINK-5906,1 55962U 23037BA  23291.12867438  .00000403  00000-0  40631-4 0  9993,2 55962  69.9999 306.9506 0003118 271.3122  88.7680 14.99301113 33623,6947.191,96.045,571.223,566.89,0.0
55962.0,STARLINK-5906,PAYLOAD,2023-10-18 11:05:39,14.99295112,0.0002642,69.9991,306.1054,264.4731,95.6127,-7.7506e-05,-1.042e-05,0.0,0 STARLINK-5906,1 55962U 23037BA  23291.46226463 -.00001042  00000-0 -77506-4 0  9990,2 55962  69.9991 306.1054 0002642 264.4731  95.6127 14.99295112 34013,6947.21,96.045,570.91,567.24,0.0
55962.0,STARLINK-5906,PAYLOAD,2023-10-18 19:06:13,14.99205409,0.0002226,70.0008,305.2637,266.1118,93.9787,-0.0027812,-0.00033875,0.0,0 STARLINK-5906,1 55962U 23037BA  23291.79599260 -.00033875  00000-0 -27812-2 0  9996,2 55962  70.0008 305.2637 0002226 266.1118  93.9787 14.99205409 34066,6947.487,96.051,570.899,567.806,0.0
55962.0,STARLINK-5906,PAYLOAD,2023-10-19 04:43:12,14.98821197,0.0002195,70.0005,304.257,242.3442,117.7494,-0.0048304,-0.00057984,0.0,0 STARLINK-5906,1 55962U 23037BA  23292.19667651 -.00057984  00000-0 -48304-2 0  9997,2 55962  70.0005 304.2570 0002195 242.3442 117.7494 14.98821197 34123,6948.674,96.076,572.065,569.014,0.0
55962.0,STARLINK-5906,PAYLOAD,2023-10-19 11:07:42,14.9874752,0.000283,69.9999,303.584,282.7369,77.3473,-0.0053203,-0.00063685,0.0,0 STARLINK-5906,1 55962U 23037BA  23292.46368975 -.00063685  00000-0 -53203-2 0  9993,2 55962  69.9999 303.5840 0002830 282.7369  77.3473 14.98747520 34165,6948.902,96.08,572.734,568.801,0.0
55962.0,STARLINK-5906,PAYLOAD,2023-10-19 17:32:09,14.98723318,0.0002881,69.9991,302.9077,284.8767,75.2073,-0.0052809,-0.00063179,0.0,0 STARLINK-5906,1 55962U 23037BA  23292.73066546 -.00063179  00000-0 -52809-2 0  9991,2 55962  69.9991 302.9077 0002881 284.8767  75.2073 14.98723318 33861,6948.977,96.082,572.844,568.84,0.0
55962.0,STARLINK-5906,PAYLOAD,2023-10-20 04:44:58,14.98663582,0.0003029,69.9985,301.7331,274.4251,85.6562,-0.0049384,-0.00059032,0.0,0 STARLINK-5906,1 55962U 23037BA  23293.19789406 -.00059032  00000-0 -49384-2 0  9996,2 55962  69.9985 301.7331 0003029 274.4251  85.6562 14.98663582 34272,6949.162,96.086,573.131,568.922,0.0
55962.0,STARLINK-5906,PAYLOAD,2023-10-20 11:09:26,14.98637801,0.0002784,69.9994,301.0598,279.6823,80.4022,-0.0047187,-0.00056392,0.0,0 STARLINK-5906,1 55962U 23037BA  23293.46489174 -.00056392  00000-0 -47187-2 0  9990,2 55962  69.9994 301.0598 0002784 279.6823  80.4022 14.98637801 34313,6949.241,96.087,573.041,569.172,0.0
55962.0,STARLINK-5906,PAYLOAD,2023-10-21 03:10:45,14.9835368,0.0002331,69.9992,299.3761,256.8174,103.2725,-0.00043049,-5.229e-05,0.0,0 STARLINK-5906,1 55962U 23037BA  23294.13246826 -.00005229  00000-0 -43049-3 0  9997,2 55962  69.9992 299.3761 0002331 256.8174 103.2725 14.98353680 34411,6950.12,96.105,573.605,570.365,0.0
55962.0,STARLINK-5906,PAYLOAD,2023-10-21 12:00:00,14.9831922,0.0002804,70.0006,298.4491,274.7108,267.336,0.0017005,0.0002025,0.0,0 STARLINK-5906,1 55962U 23037BA  23294.50001157  .00020250  00000-0  17005-2 0  9995,2 55962  70.0006 298.4491 0002804 274.7108 267.3360 14.98319220 34476,6950.226,96.108,574.04,570.142,0.0
55962.0,STARLINK-5906,PAYLOAD,2023-10-21 14:00:01,14.98344453,0.0002777,70.0005,298.2391,273.5908,357.8184,-0.0028086,-0.00033457,0.0,0 STARLINK-5906,1 55962U 23037BA  23294.58334491 -.00033457  00000-0 -28086-2 0  9999,2 55962  70.0005 298.2391 0002777 273.5908 357.8184 14.98344453  5839,6950.148,96.106,573.943,570.083,0.0
55962.0,STARLINK-5906,PAYLOAD,2023-10-22 00:00:00,14.98330239,0.0002765,70.0008,297.1886,265.6458,92.6189,0.0027588,0.0003298,0.0,0 STARLINK-5906,1 55962U 23037BA  23295.00001157  .00032980  00000-0  27588-2 0  9991,2 55962  70.0008 297.1886 0002765 265.6458  92.6189 14.98330239  5890,6950.192,96.107,573.979,570.135,0.0
55962.0,STARLINK-5906,PAYLOAD,2023-10-22 14:00:01,14.98339836,0.0002796,70.0004,295.7176,271.0453,352.8248,-0.0031757,-0.0003779,0.0,0 STARLINK-5906,1 55962U 23037BA  23295.58334491 -.00037790  00000-0 -31757-2 0  9993,2 55962  70.0004 295.7176 0002796 271.0453 352.8248 14.98339836 34635,6950.162,96.106,573.971,570.084,0.0
